CTC2_L_00350001-01
1 70785U 26579DZ  26070.40846065  .00000000  00000+0  00000-0 0  9993
2 70785  95.0000   0.0000 0000000   0.0000   0.0000 13.42494874    10
CTC2_L_00350001-02
1 70786U 25532BX  26070.40846065  .00000000  00000+0  00000-0 0  9992
2 70786  95.0000   0.0000 0000000   0.0000  90.0000 13.42494874    10
CTC2_L_00350001-03
1 70787U 22655ZC  26070.40846065  .00000000  00000+0  00000-0 0  9996
2 70787  95.0000   0.0000 0000000   0.0000 180.0000 13.42494874    11
CTC2_L_00350001-04
1 70788U 26848MJ  26070.40846065  .00000000  00000+0  00000-0 0  9995
2 70788  95.0000   0.0000 0000000   0.0000 270.0000 13.42494874    12
CTC2_L_00350002-01
1 70789U 22088GF  26070.40846065  .00000000  00000+0  00000-0 0  9998
2 70789  95.0000  12.0000 0000000   0.0000  12.0000 13.42494874    10
CTC2_L_00350002-02
1 70790U 24071AP  26070.40846065  .00000000  00000+0  00000-0 0  9994
2 70790  95.0000  12.0000 0000000   0.0000 102.0000 13.42494874    12
CTC2_L_00350002-03
1 70791U 25183AW  26070.40846065  .00000000  00000+0  00000-0 0  9990
2 70791  95.0000  12.0000 0000000   0.0000 192.0000 13.42494874    12
CTC2_L_00350002-04
1 70792U 25708U   26070.40846065  .00000000  00000+0  00000-0 0  9994
2 70792  95.0000  12.0000 0000000   0.0000 282.0000 13.42494874    13
CTC2_L_00350003-01
1 70793U 24141BD  26070.40846065  .00000000  00000+0  00000-0 0  9995
2 70793  95.0000  24.0000 0000000   0.0000  24.0000 13.42494874    11
CTC2_L_00350003-02
1 70794U 23711QO  26070.40846065  .00000000  00000+0  00000-0 0  9998
2 70794  95.0000  24.0000 0000000   0.0000 114.0000 13.42494874    12
CTC2_L_00350003-03
1 70795U 26201NR  26070.40846065  .00000000  00000+0  00000-0 0  9996
2 70795  95.0000  24.0000 0000000   0.0000 204.0000 13.42494874    13
CTC2_L_00350003-04
1 70796U 26907RV  26070.40846065  .00000000  00000+0  00000-0 0  9990
2 70796  95.0000  24.0000 0000000   0.0000 294.0000 13.42494874    13
CTC2_L_00350004-01
1 70797U 26410PP  26070.40846065  .00000000  00000+0  00000-0 0  9990
2 70797  95.0000  36.0000 0000000   0.0000  36.0000 13.42494874    11
CTC2_L_00350004-02
1 70798U 23076YK  26070.40846065  .00000000  00000+0  00000-0 0  9996
2 70798  95.0000  36.0000 0000000   0.0000 126.0000 13.42494874    12
CTC2_L_00350004-03
1 70799U 24203SI  26070.40846065  .00000000  00000+0  00000-0 0  9990
2 70799  95.0000  36.0000 0000000   0.0000 216.0000 13.42494874    13
CTC2_L_00350004-04
1 70800U 23562LI  26070.40846065  .00000000  00000+0  00000-0 0  9990
2 70800  95.0000  36.0000 0000000   0.0000 306.0000 13.42494874    16
CTC2_L_00350005-01
1 70801U 23038EE  26070.40846065  .00000000  00000+0  00000-0 0  9999
2 70801  95.0000  48.0000 0000000   0.0000  48.0000 13.42494874    13
CTC2_L_00350005-02
1 70802U 22347RP  26070.40846065  .00000000  00000+0  00000-0 0  9992
2 70802  95.0000  48.0000 0000000   0.0000 138.0000 13.42494874    14
CTC2_L_00350005-03
1 70803U 25841BI  26070.40846065  .00000000  00000+0  00000-0 0  9995
2 70803  95.0000  48.0000 0000000   0.0000 228.0000 13.42494874    15
CTC2_L_00350005-04
1 70804U 24865JC  26070.40846065  .00000000  00000+0  00000-0 0  9991
2 70804  95.0000  48.0000 0000000   0.0000 318.0000 13.42494874    16
CTC2_L_00350006-01
1 70805U 22466SR  26070.40846065  .00000000  00000+0  00000-0 0  9997
2 70805  95.0000  60.0000 0000000   0.0000  60.0000 13.42494874    15
CTC2_L_00350006-02
1 70806U 23385ER  26070.40846065  .00000000  00000+0  00000-0 0  9999
2 70806  95.0000  60.0000 0000000   0.0000 150.0000 13.42494874    16
CTC2_L_00350006-03
1 70807U 22066EI  26070.40846065  .00000000  00000+0  00000-0 0  9995
2 70807  95.0000  60.0000 0000000   0.0000 240.0000 13.42494874    17
CTC2_L_00350006-04
1 70808U 22402QB  26070.40846065  .00000000  00000+0  00000-0 0  9990
2 70808  95.0000  60.0000 0000000   0.0000 330.0000 13.42494874    18
CTC2_L_00350007-01
1 70809U 22404OC  26070.40846065  .00000000  00000+0  00000-0 0  9993
2 70809  95.0000  72.0000 0000000   0.0000  72.0000 13.42494874    15
CTC2_L_00350007-02
1 70810U 26756EW  26070.40846065  .00000000  00000+0  00000-0 0  9999
2 70810  95.0000  72.0000 0000000   0.0000 162.0000 13.42494874    17
CTC2_L_00350007-03
1 70811U 26149WG  26070.40846065  .00000000  00000+0  00000-0 0  9996
2 70811  95.0000  72.0000 0000000   0.0000 252.0000 13.42494874    18
CTC2_L_00350007-04
1 70812U 25994DT  26070.40846065  .00000000  00000+0  00000-0 0  9994
2 70812  95.0000  72.0000 0000000   0.0000 342.0000 13.42494874    19
CTC2_L_00350008-01
1 70813U 24789LS  26070.40846065  .00000000  00000+0  00000-0 0  9996
2 70813  95.0000  84.0000 0000000   0.0000  84.0000 13.42494874    16
CTC2_L_00350008-02
1 70814U 25918CS  26070.40846065  .00000000  00000+0  00000-0 0  9992
2 70814  95.0000  84.0000 0000000   0.0000 174.0000 13.42494874    17
CTC2_L_00350008-03
1 70815U 24894HD  26070.40846065  .00000000  00000+0  00000-0 0  9995
2 70815  95.0000  84.0000 0000000   0.0000 264.0000 13.42494874    18
CTC2_L_00350008-04
1 70816U 22057FZ  26070.40846065  .00000000  00000+0  00000-0 0  9995
2 70816  95.0000  84.0000 0000000   0.0000 354.0000 13.42494874    19
CTC2_L_00350009-01
1 70817U 24518GR  26070.40846065  .00000000  00000+0  00000-0 0  9990
2 70817  95.0000  96.0000 0000000   0.0000  96.0000 13.42494874    16
CTC2_L_00350009-02
1 70818U 25769QY  26070.40846065  .00000000  00000+0  00000-0 0  9990
2 70818  95.0000  96.0000 0000000   0.0000 186.0000 13.42494874    17
CTC2_L_00350009-03
1 70819U 24292ME  26070.40846065  .00000000  00000+0  00000-0 0  9991
2 70819  95.0000  96.0000 0000000   0.0000 276.0000 13.42494874    18
CTC2_L_00350009-04
1 70820U 26264UX  26070.40846065  .00000000  00000+0  00000-0 0  9994
2 70820  95.0000  96.0000 0000000   0.0000   6.0000 13.42494874    11
CTC2_L_00350010-01
1 70821U 25432HB  26070.40846065  .00000000  00000+0  00000-0 0  9991
2 70821  95.0000 108.0000 0000000   0.0000 108.0000 13.42494874    19
CTC2_L_00350010-02
1 70822U 25224KN  26070.40846065  .00000000  00000+0  00000-0 0  9991
2 70822  95.0000 108.0000 0000000   0.0000 198.0000 13.42494874    19
CTC2_L_00350010-03
1 70823U 26592EI  26070.40846065  .00000000  00000+0  00000-0 0  9991
2 70823  95.0000 108.0000 0000000   0.0000 288.0000 13.42494874    10
CTC2_L_00350010-04
1 70824U 24176YU  26070.40846065  .00000000  00000+0  00000-0 0  9998
2 70824  95.0000 108.0000 0000000   0.0000  18.0000 13.42494874    12
CTC2_L_00350011-01
1 70825U 26870IA  26070.40846065  .00000000  00000+0  00000-0 0  9992
2 70825  95.0000 120.0000 0000000   0.0000 120.0000 13.42494874    11
CTC2_L_00350011-02
1 70826U 25555HW  26070.40846065  .00000000  00000+0  00000-0 0  9992
2 70826  95.0000 120.0000 0000000   0.0000 210.0000 13.42494874    12
CTC2_L_00350011-03
1 70827U 23106LC  26070.40846065  .00000000  00000+0  00000-0 0  9993
2 70827  95.0000 120.0000 0000000   0.0000 300.0000 13.42494874    13
CTC2_L_00350011-04
1 70828U 23919IB  26070.40846065  .00000000  00000+0  00000-0 0  9996
2 70828  95.0000 120.0000 0000000   0.0000  30.0000 13.42494874    14
CTC2_L_00350012-01
1 70829U 24781WA  26070.40846065  .00000000  00000+0  00000-0 0  9995
2 70829  95.0000 132.0000 0000000   0.0000 132.0000 13.42494874    11
CTC2_L_00350012-02
1 70830U 22368XF  26070.40846065  .00000000  00000+0  00000-0 0  9996
2 70830  95.0000 132.0000 0000000   0.0000 222.0000 13.42494874    13
CTC2_L_00350012-03
1 70831U 24064HG  26070.40846065  .00000000  00000+0  00000-0 0  9992
2 70831  95.0000 132.0000 0000000   0.0000 312.0000 13.42494874    14
CTC2_L_00350012-04
1 70832U 24800TH  26070.40846065  .00000000  00000+0  00000-0 0  9991
2 70832  95.0000 132.0000 0000000   0.0000  42.0000 13.42494874    15
CTC2_L_00350013-01
1 70833U 24766JH  26070.40846065  .00000000  00000+0  00000-0 0  9993
2 70833  95.0000 144.0000 0000000   0.0000 144.0000 13.42494874    12
CTC2_L_00350013-02
1 70834U 25272GH  26070.40846065  .00000000  00000+0  00000-0 0  9997
2 70834  95.0000 144.0000 0000000   0.0000 234.0000 13.42494874    13
CTC2_L_00350013-03
1 70835U 25254TL  26070.40846065  .00000000  00000+0  00000-0 0  9998
2 70835  95.0000 144.0000 0000000   0.0000 324.0000 13.42494874    14
CTC2_L_00350013-04
1 70836U 22129ND  26070.40846065  .00000000  00000+0  00000-0 0  9997
2 70836  95.0000 144.0000 0000000   0.0000  54.0000 13.42494874    15
CTC2_L_00350014-01
1 70837U 24206PQ  26070.40846065  .00000000  00000+0  00000-0 0  9996
2 70837  95.0000 156.0000 0000000   0.0000 156.0000 13.42494874    12
CTC2_L_00350014-02
1 70838U 23832EH  26070.40846065  .00000000  00000+0  00000-0 0  9991
2 70838  95.0000 156.0000 0000000   0.0000 246.0000 13.42494874    13
CTC2_L_00350014-03
1 70839U 25146VV  26070.40846065  .00000000  00000+0  00000-0 0  9992
2 70839  95.0000 156.0000 0000000   0.0000 336.0000 13.42494874    14
CTC2_L_00350014-04
1 70840U 22072CO  26070.40846065  .00000000  00000+0  00000-0 0  9999
2 70840  95.0000 156.0000 0000000   0.0000  66.0000 13.42494874    16
CTC2_L_00350015-01
1 70841U 26653RH  26070.40846065  .00000000  00000+0  00000-0 0  9999
2 70841  95.0000 168.0000 0000000   0.0000 168.0000 13.42494874    13
CTC2_L_00350015-02
1 70842U 24066VP  26070.40846065  .00000000  00000+0  00000-0 0  9996
2 70842  95.0000 168.0000 0000000   0.0000 258.0000 13.42494874    14
CTC2_L_00350015-03
1 70843U 24211JY  26070.40846065  .00000000  00000+0  00000-0 0  9999
2 70843  95.0000 168.0000 0000000   0.0000 348.0000 13.42494874    15
CTC2_L_00350015-04
1 70844U 22536PG  26070.40846065  .00000000  00000+0  00000-0 0  9998
2 70844  95.0000 168.0000 0000000   0.0000  78.0000 13.42494874    16
CTC2_L_00350016-01
1 70845U 23508DJ  26070.40846065  .00000000  00000+0  00000-0 0  9999
2 70845  95.0000 180.0000 0000000   0.0000 180.0000 13.42494874    15
CTC2_L_00350016-02
1 70846U 23523LO  26070.40846065  .00000000  00000+0  00000-0 0  9997
2 70846  95.0000 180.0000 0000000   0.0000 270.0000 13.42494874    16
